{
  "type": "FeatureCollection",
  "features": [
    {
      "type": "Feature",
      "properties": {
        "label": "ประตูทางออก หรือ ประตู 2\n(ปิด 2 ทุ่ม - 3 ทุ่ม)",
        "description": "ปิดช่วง 2 ถึง 3 ทุ่ม"
      },
      "geometry": { ... }   // คงเดิม
    },
    {
      "type": "Feature",
      "properties": {
        "label": "ประตูทางเข้า หรือ ประตู 1"
      },
      "geometry": { ... }
    },
    {
      "type": "Feature",
      "properties": {
        "label": "ทางออก 3"
      },
      "geometry": { ... }
    },
    {
      "type": "Feature",
      "properties": {
        "label": "อาคารเรียนหลัก สาขา เทคโนโลยีอุตสาหการ\n(ที่นั่งสำหรับ สาขา เทคโนโลยีอุตสาหการ)"
      },
      "geometry": { ... }
    },
    {
      "type": "Feature",
      "properties": {
        "label": "ร้าน...\n(ที่นั่งเสรี)"
      },
      "geometry": { ... }
    },
    {
      "type": "Feature",
      "properties": {
        "label": "ร้านป้าเยาว์\n(ที่นั่งเสรี)"
      },
      "geometry": { ... }
    },
    {
      "type": "Feature",
      "properties": {
        "label": "ตึกเซเว่น\n(ติดต่อ กยศ. / รด.)"
      },
      "geometry": { ... }
    },
    {
      "type": "Feature",
      "properties": {
        "label": "อาคาร 42 หรือ ตึก โอ่งแดง\n(อาคารเรียนรวม)"
      },
      "geometry": { ... }
    },
    {
      "type": "Feature",
      "properties": {
        "label": "โรงอาหาร 2 หรือ โรงร้อน"
      },
      "geometry": { ... }
    },
    {
      "type": "Feature",
      "properties": {
        "label": "โรงอาหาร 1 หรือ โรงเย็น 1"
      },
      "geometry": { ... }
    },
    {
      "type": "Feature",
      "properties": {
        "label": "โรงอาหาร 3 หรือ โรงเย็น 2"
      },
      "geometry": { ... }
    },
    {
      "type": "Feature",
      "properties": {
        "label": "อาคาร 4 หรือ ตึกเกี่ยวกับการเงิน"
      },
      "geometry": { ... }
    },
    {
      "type": "Feature",
      "properties": {
        "label": "อาคาร 27 หรือ ตึกหม้อ สุกกี้"
      },
      "geometry": { ... }
    },
    // ... (ทำแบบนี้กับทุก feature ที่มี properties)
    {
      "type": "Feature",
      "properties": {
        "label": "ทางออก 4\n(ปิด 6 โมง - 1 ทุ่ม)"
      },
      "geometry": { ... },
      "id": 25
    }
  ]
}
